[{"OBJECT_NAME":"STARLINK-31946","OBJECT_ID":"2024-106U","EPOCH":"2026-03-09T03:16:02.865792","MEAN_MOTION":15.27581519,"ECCENTRICITY":7.356e-5,"INCLINATION":43.0016,"RA_OF_ASC_NODE":336.0354,"ARG_OF_PERICENTER":313.8976,"MEAN_ANOMALY":46.1815,"EPHEMERIS_TYPE":0,"CLASSIFICATION_TYPE":"U","NORAD_CAT_ID":59940,"ELEMENT_SET_NO":999,"REV_AT_EPOCH":9106,"BSTAR":4.9804081e-5,"MEAN_MOTION_DOT":1.109e-5,"MEAN_MOTION_DDOT":0},{"OBJECT_NAME":"OBJECT BE","OBJECT_ID":"2025-313BE","EPOCH":"2026-03-09T16:43:59.380320","MEAN_MOTION":15.29801687,"ECCENTRICITY":0.00072083,"INCLINATION":97.3989,"RA_OF_ASC_NODE":145.3568,"ARG_OF_PERICENTER":335.3714,"MEAN_ANOMALY":24.7181,"EPHEMERIS_TYPE":0,"CLASSIFICATION_TYPE":"U","NORAD_CAT_ID":67482,"ELEMENT_SET_NO":999,"REV_AT_EPOCH":797,"BSTAR":0.0026504328,"MEAN_MOTION_DOT":0.00077178,"MEAN_MOTION_DDOT":0}]
