STARLINK-31946          
1 59940U 24106U   26068.13614428  .00001109  00000+0  49804-4 0  9990
2 59940  43.0016 336.0354 0000735 313.8976  46.1815 15.27581519 91064
2025-313BE              
1 67482U 25313BE  26068.69721505  .00077178  00000+0  26504-2 0  9996
2 67482  97.3989 145.3568 0007208 335.3714  24.7181 15.29801687  7972
